STARLINK-30325          
1 57717U 23129V   26068.51122732 -.00000732  00000+0 -17614-4 0  9995
2 57717  43.0013 119.0461 0000929 281.5541  78.5206 15.26741436140651
STRIX-4                 
1 60352U 24137A   26068.65404516  .00020530  00000+0  71820-3 0  9996
2 60352  43.0134 129.8162 0016840   5.2738 354.8289 15.29026223 88766
